[{"OBJECT_NAME":"STARLINK-1417","OBJECT_ID":"2020-035AN","EPOCH":"2026-03-09T06:25:21.276768","MEAN_MOTION":15.12514223,"ECCENTRICITY":0.00021286,"INCLINATION":53.0515,"RA_OF_ASC_NODE":56.2233,"ARG_OF_PERICENTER":233.0338,"MEAN_ANOMALY":127.0459,"EPHEMERIS_TYPE":0,"CLASSIFICATION_TYPE":"U","NORAD_CAT_ID":45693,"ELEMENT_SET_NO":999,"REV_AT_EPOCH":31883,"BSTAR":0.0019843855,"MEAN_MOTION_DOT":0.00034834,"MEAN_MOTION_DDOT":0},{"OBJECT_NAME":"DS-EO","OBJECT_ID":"2022-072A","EPOCH":"2026-03-09T23:09:32.454144","MEAN_MOTION":15.12980389,"ECCENTRICITY":0.00042856,"INCLINATION":9.9929,"RA_OF_ASC_NODE":205.6872,"ARG_OF_PERICENTER":305.4389,"MEAN_ANOMALY":54.5426,"EPHEMERIS_TYPE":0,"CLASSIFICATION_TYPE":"U","NORAD_CAT_ID":52935,"ELEMENT_SET_NO":999,"REV_AT_EPOCH":20345,"BSTAR":0.00030023735,"MEAN_MOTION_DOT":6.277e-5,"MEAN_MOTION_DDOT":0}]
